| satellites | [{"alt": 0, "country": "EU", "id": "31797", "inclination": 0, "line1": "1 31797U 07030A   26181.95855332  .00014656  00000+0  24397-3 0  9994", "line2": "2 31797  98.1059 288.1203 0002690 205.9489 154.1627 15.52156374 59075", "name": "SAR-LUPE 2", "type": "sar", "velocity": 0}, {"alt": 0, "country": "US", "id": "39088", "inclination": 0, "line1": "1 39088U 13009C   26181.96540509  .00000101  00000+0  50163-4 0  9997", "line2": "2 39088  98.4266   1.0943 0010692 202.2711 157.8012 14.35244324698554", "name": "SAPPHIRE", "type": "military", "velocity": 0}, {"alt": 0, "country": "US", "id": "65565", "inclination": 0, "line1": "1 65565U 25203A   26181.90302986  .00000090  00000+0  70201-4 0  9996", "line2": "2 65565  81.3031 358.0658 0006562 151.4676 208.6841 13.83886682 40599", "name": "PRAETORIAN SDA_602", "type": "military", "velocity": 0}, {"alt": 0, "country": "US", "id": "65566", "inclination": 0, "line1": "1 65566U 25203B   26181.49822625  .00000115  00000+0  92888-4 0  9991", "line2": "2 65566  81.3037 358.3631 0010042 152.0009 208.1690 13.83906372 40546", "name": "PRAETORIAN SDA_603", "type": "military", "velocity": 0}, {"alt": 0, "country": "US", "id": "65567", "inclination": 0, "line1": "1 65567U 25203C   26181.96024730  .00000067  00000+0  49983-4 0  9999", "line2": "2 65567  81.3053 358.3684 0006022 154.8633 205.2818 13.83048992 40588", "name": "PRAETORIAN SDA_604", "type": "military", "velocity": 0}, {"alt": 0, "country": "US", "id": "65568", "inclination": 0, "line1": "1 65568U 25203D   26181.48779852  .00000028  00000+0  14993-4 0  9999", "line2": "2 65568  81.3019 358.4552 0008780 147.9648 212.2044 13.83435063 40531", "name": "PRAETORIAN SDA_605", "type": "military", "velocity": 0}, {"alt": 0, "country": "US", "id": "65569", "inclination": 0, "line1": "1 65569U 25203E   26181.90665266  .00000046  00000+0  30749-4 0  9997", "line2": "2 65569  81.3055 358.2998 0006681 149.8038 210.3505 13.83198967 40581", "name": "PRAETORIAN SDA_606", "type": "military", "velocity": 0}, {"alt": 0, "country": "US", "id": "65570", "inclination": 0, "line1": "1 65570U 25203F   26181.47022502  .00000228  00000+0  19375-3 0  9994", "line2": "2 65570  81.3042 358.3409 0009419 152.1377 208.0286 13.84286380 40546", "name": "PRAETORIAN SDA_607", "type": "military", "velocity": 0}, {"alt": 0, "country": "US", "id": "65571", "inclination": 0, "line1": "1 65571U 25203G   26181.95822929  .00000083  00000+0  63995-4 0  9996", "line2": "2 65571  81.3008 358.0568 0006537 154.1283 206.0202 13.83818250 40595", "name": "PRAETORIAN SDA_608", "type": "military", "velocity": 0}, {"alt": 0, "country": "US", "id": "65572", "inclination": 0, "line1": "1 65572U 25203H   26181.95923756  .00000123  00000+0  99422-4 0  9996", "line2": "2 65572  81.3050 358.0365 0007417 148.9775 211.1821 13.84210315 40608", "name": "PRAETORIAN SDA_609", "type": "military", "velocity": 0}, {"alt": 0, "country": "US", "id": "65573", "inclination": 0, "line1": "1 65573U 25203J   26181.50461749  .00000067  00000+0  50025-4 0  9990", "line2": "2 65573  81.3008 358.4360 0007261 154.7630 205.3882 13.83768908 40532", "name": "PRAETORIAN SDA_610", "type": "military", "velocity": 0}, {"alt": 0, "country": "US", "id": "65574", "inclination": 0, "line1": "1 65574U 25203K   26181.94380866  .00000180  00000+0  15343-3 0  9998", "line2": "2 65574  81.3011 358.2044 0006024 157.6672 202.4748 13.83310770 40582", "name": "PRAETORIAN SDA_611", "type": "military", "velocity": 0}, {"alt": 0, "country": "US", "id": "65575", "inclination": 0, "line1": "1 65575U 25203L   26181.91625531  .00000166  00000+0  13603-3 0  9998", "line2": "2 65575  81.3033 357.7829 0009843 150.1912 209.9808 13.85040904 40613", "name": "PRAETORIAN SDA_612", "type": "military", "velocity": 0}, {"alt": 0, "country": "US", "id": "65576", "inclination": 0, "line1": "1 65576U 25203M   26181.88360376  .00000058  00000+0  42235-4 0  9992", "line2": "2 65576  81.3000 358.2680 0006298 148.1650 211.9888 13.82766358 40577", "name": "PRAETORIAN SDA_613", "type": "military", "velocity": 0}, {"alt": 0, "country": "US", "id": "65577", "inclination": 0, "line1": "1 65577U 25203N   26181.90802455  .00000037  00000+0  21852-4 0  9994", "line2": "2 65577  81.3014 357.8716 0007756 147.6221 212.5413 13.84778244 40611", "name": "PRAETORIAN SDA_614", "type": "military", "velocity": 0}, {"alt": 0, "country": "US", "id": "65578", "inclination": 0, "line1": "1 65578U 25203P   26181.96056307  .00000141  00000+0  11522-3 0  9996", "line2": "2 65578  81.3026 357.7956 0009602 148.8190 211.3538 13.84437436 40610", "name": "PRAETORIAN SDA_615", "type": "military", "velocity": 0}, {"alt": 0, "country": "US", "id": "65579", "inclination": 0, "line1": "1 65579U 25203Q   26181.94343337  .00000225  00000+0  19417-3 0  9991", "line2": "2 65579  81.3066 358.3597 0005963 155.8507 204.2930 13.83269676 40580", "name": "PRAETORIAN SDA_616", "type": "military", "velocity": 0}, {"alt": 0, "country": "US", "id": "65580", "inclination": 0, "line1": "1 65580U 25203R   26181.96621141  .00000064  00000+0  47476-4 0  9995", "line2": "2 65580  81.3038 358.1683 0008004 147.8414 212.3232 13.83151108 40598", "name": "PRAETORIAN SDA_617", "type": "military", "velocity": 0}, {"alt": 0, "country": "US", "id": "65581", "inclination": 0, "line1": "1 65581U 25203S   26181.49202839  .00000131  00000+0  10637-3 0  9996", "line2": "2 65581  81.3019 358.1569 0010324 153.5155 206.6532 13.84224408 40555", "name": "PRAETORIAN SDA_618", "type": "military", "velocity": 0}, {"alt": 0, "country": "US", "id": "65582", "inclination": 0, "line1": "1 65582U 25203T   26181.89650624  .00000202  00000+0  17131-3 0  9995", "line2": "2 65582  81.3045 358.0981 0008759 149.3572 210.8098 13.83807198 41228", "name": "PRAETORIAN SDA_619", "type": "military", "velocity": 0}, {"alt": 0, "country": "US", "id": "65583", "inclination": 0, "line1": "1 65583U 25203U   26181.49246894  .00000200  00000+0  17064-3 0  9995", "line2": "2 65583  81.3035 358.4947 0008239 146.0262 214.1424 13.83619602 40531", "name": "PRAETORIAN SDA_620", "type": "military", "velocity": 0}, {"alt": 0, "country": "US", "id": "65584", "inclination": 0, "line1": "1 65584U 25203V   26181.89832074  .00000062  00000+0  44900-4 0  9997", "line2": "2 65584  81.3021 358.0318 0008071 143.1441 217.0272 13.83802589 40593", "name": "PRAETORIAN SDA_621", "type": "military", "velocity": 0}, {"alt": 0, "country": "US", "id": "65585", "inclination": 0, "line1": "1 65585U 25203W   26181.94756404  .00000124  00000+0  10244-3 0  9998", "line2": "2 65585  81.3041 358.2984 0006018 158.6343 201.5066 13.83169220 40584", "name": "PRAETORIAN SDA_601", "type": "military", "velocity": 0}, {"alt": 0, "country": "EU", "id": "31598", "inclination": 0, "line1": "1 31598U 07023A   26181.96998770  .00002126  00000+0  18912-3 0  9995", "line2": "2 31598  97.8855  13.9422 0001499  84.2100 275.9292 14.97170900 31850", "name": "COSMO-SKYMED 1", "type": "sar", "velocity": 0}, {"alt": 0, "country": "EU", "id": "31698", "inclination": 0, "line1": "1 31698U 07026A   26181.62885468  .00000511  00000+0  27537-4 0  9991", "line2": "2 31698  97.4453 189.1447 0001922  88.4966 271.6489 15.19151223 55265", "name": "TERRASAR-X", "type": "sar", "velocity": 0}, {"alt": 0, "country": "US", "id": "32060", "inclination": 0, "line1": "1 32060U 07041A   26181.94610528  .00006785  00000+0  27954-3 0  9991", "line2": "2 32060  97.3896 301.4937 0001043 317.1515  42.9641 15.24416123 44972", "name": "WORLDVIEW-1 (WV-1)", "type": "optical", "velocity": 0}, {"alt": 0, "country": "CN", "id": "32289", "inclination": 0, "line1": "1 32289U 07055A   26181.95391076  .00001511  00000+0  15913-3 0  9998", "line2": "2 32289  97.8144 211.6948 0001610  79.2057 280.9342 14.90829464  7921", "name": "YAOGAN-3", "type": "sar", "velocity": 0}, {"alt": 0, "country": "EU", "id": "32376", "inclination": 0, "line1": "1 32376U 07059A   26181.93319022  .00000408  00000+0  57798-4 0  9990", "line2": "2 32376  97.8888   5.3318 0001341  89.6182 270.5185 14.82156605  4048", "name": "COSMO-SKYMED 2", "type": "sar", "velocity": 0}, {"alt": 0, "country": "IN", "id": "32783", "inclination": 0, "line1": "1 32783U 08021A   26181.91338097  .00000758  00000+0  10854-3 0  9992", "line2": "2 32783  97.7629 230.1531 0013287  69.1858 291.0776 14.79259326980836", "name": "CARTOSAT-2A", "type": "optical", "velocity": 0}, {"alt": 0, "country": "EU", "id": "33412", "inclination": 0, "line1": "1 33412U 08054A   26181.95415613  .00004019  00000+0  27191-3 0  9998", "line2": "2 33412  97.8266  40.7532 0014741 216.2524 143.7705 15.07035191959016", "name": "COSMO-SKYMED 3", "type": "sar", "velocity": 0}, {"alt": 0, "country": "CN", "id": "33446", "inclination": 0, "line1": "1 33446U 08061A   26181.38971803  .00001066  00000+0  13690-3 0  9996", "line2": "2 33446  97.9309 114.8027 0015085  32.8748 327.3401 14.83225724947629", "name": "YAOGAN-4", "type": "sar", "velocity": 0}, {"alt": 0, "country": "US", "id": "35946", "inclination": 0, "line1": "1 35946U 09055A   26181.94182215  .00000137  00000+0  59710-4 0  9992", "line2": "2 35946  98.4764 255.2032 0004584 166.1913 193.9400 14.37903335877628", "name": "WORLDVIEW-2 (WV-2)", "type": "optical", "velocity": 0}, {"alt": 0, "country": "CN", "id": "36110", "inclination": 0, "line1": "1 36110U 09069A   26181.96710571  .00000522  00000+0  79305-4 0  9995", "line2": "2 36110  98.0054  67.7481 0024577 358.2767   1.8355 14.78023531891661", "name": "YAOGAN-7", "type": "sar", "velocity": 0}, {"alt": 0, "country": "IN", "id": "36795", "inclination": 0, "line1": "1 36795U 10035A   26181.94128689 -.00000044  00000+0  11502-5 0  9996", "line2": "2 36795  97.9949 232.4030 0011915 140.3574 219.8511 14.78598935861881", "name": "CARTOSAT-2B", "type": "optical", "velocity": 0}, {"alt": 0, "country": "CN", "id": "36834", "inclination": 0, "line1": "1 36834U 10038A   26181.96418443  .00001328  00000+0  16048-3 0  9998", "line2": "2 36834  97.8967 205.2580 0001646  86.3658   3.4691 14.85388271859256", "name": "YAOGAN-10", "type": "sar", "velocity": 0}, {"alt": 0, "country": "EU", "id": "37216", "inclination": 0, "line1": "1 37216U 10060A   26181.94585750  .00001089  00000+0  14338-3 0  9996", "line2": "2 37216  97.8882   5.3462 0001492  84.5594 275.5790 14.82158694846601", "name": "COSMO-SKYMED 4", "type": "sar", "velocity": 0}, {"alt": 0, "country": "TR", "id": "37791", "inclination": 0, "line1": "1 37791U 11044D   26181.95369444  .00000146  00000+0  33801-4 0  9998", "line2": "2 37791  98.0586 273.1403 0021223 145.4478 325.5682 14.68178044795205", "name": "RASAT", "type": "military", "velocity": 0}, {"alt": 0, "country": "EU", "id": "38012", "inclination": 0, "line1": "1 38012U 11076F   26181.92490639  .00000014  00000+0  12774-4 0  9998", "line2": "2 38012  98.1980 256.8430 0001766  87.6535  27.7493 14.58538080773992", "name": "PLEIADES 1A", "type": "optical", "velocity": 0}, {"alt": 0, "country": "CN", "id": "38038", "inclination": 0, "line1": "1 38038U 11079A   26181.99420366  .00000149  00000+0  63347-4 0  9997", "line2": "2 38038  98.4073 249.0137 0005116 266.3442 178.8619 14.38224620761197", "name": "ZIYUAN 1-02C (ZY 1-02C)", "type": "optical", "velocity": 0}, {"alt": 0, "country": "EU", "id": "39019", "inclination": 0, "line1": "1 39019U 12068A   26181.93698899  .00000134  00000+0  38729-4 0  9998", "line2": "2 39019  98.1950 256.7992 0001699  85.0216 275.1177 14.58568069722859", "name": "PLEIADES 1B", "type": "optical", "velocity": 0}, {"alt": 0, "country": "TR", "id": "39030", "inclination": 0, "line1": "1 39030U 12073A   26181.98240304  .00000901  00000+0  13913-3 0  9995", "line2": "2 39030  97.6809  18.7221 0001105  60.5042 299.6278 14.75557673726548", "name": "GOKTURK 2", "type": "military", "velocity": 0}, {"alt": 0, "country": "CN", "id": "39150", "inclination": 0, "line1": "1 39150U 13018A   26181.95525947  .00000722  00000+0  11076-3 0  9993", "line2": "2 39150  97.9097 253.7433 0015929 218.3132 141.6947 14.76503122710274", "name": "GAOFEN-1", "type": "optical", "velocity": 0}, {"alt": 0, "country": "US", "id": "39418", "inclination": 0, "line1": "1 39418U 13066C   26181.08762456  .00003350  00000+0  19232-3 0  9997", "line2": "2 39418  97.3807 230.0738 0019696 269.2466  90.6508 15.13042686690436", "name": "SKYSAT-A", "type": "optical", "velocity": 0}, {"alt": 0, "country": "EU", "id": "39634", "inclination": 0, "line1": "1 39634U 14016A   26181.94462707  .00000128  00000+0  36771-4 0  9992", "line2": "2 39634  98.1773 189.2763 0001375  85.9129 274.2228 14.59199788652021", "name": "SENTINEL-1A", "type": "military", "velocity": 0}, {"alt": 0, "country": "US", "id": "40072", "inclination": 0, "line1": "1 40072U 14037D   26181.43926569  .00001351  00000+0  15364-3 0  9991", "line2": "2 40072  98.3844 141.1601 0004456 225.7255 134.3595 14.88060267647933", "name": "SKYSAT-B", "type": "optical", "velocity": 0}, {"alt": 0, "country": "US", "id": "40115", "inclination": 0, "line1": "1 40115U 14048A   26181.91285805  .00000920  00000+0  11406-3 0  9999", "line2": "2 40115  97.8564 256.5562 0000145 163.6760 196.4460 14.85044172643944", "name": "WORLDVIEW-3 (WV-3)", "type": "optical", "velocity": 0}, {"alt": 0, "country": "CN", "id": "40118", "inclination": 0, "line1": "1 40118U 14049A   26181.96009392  .00000398  00000+0  58366-4 0  9999", "line2": "2 40118  98.0110 246.1538 0007084 177.5070 182.6179 14.80912965641279", "name": "GAOFEN-2", "type": "optical", "velocity": 0}, {"alt": 0, "country": "CN", "id": "40143", "inclination": 0, "line1": "1 40143U 14053A   26181.99430258  .00006258  00000+0  24160-3 0  9999", "line2": "2 40143  97.1464 221.6377 0009289  53.2689 306.9402 15.26571313657066", "name": "YAOGAN-21", "type": "sar", "velocity": 0}, {"alt": 0, "country": "CN", "id": "40275", "inclination": 0, "line1": "1 40275U 14063A   26181.41857106 -.00000062  00000+0 -41539-4 0  9997", "line2": "2 40275 100.7741 332.9124 0006624 156.3389 203.8028 13.15531339561556", "name": "YAOGAN-22", "type": "sar", "velocity": 0}, {"alt": 0, "country": "CN", "id": "40310", "inclination": 0, "line1": "1 40310U 14072A   26181.97774101  .00000332  00000+0  55698-4 0  9990", "line2": "2 40310  98.1505 319.4322 0013478 216.5754 143.4536 14.76101114625752", "name": "YAOGAN-24", "type": "sar", "velocity": 0}, {"alt": 0, "country": "CN", "id": "40362", "inclination": 0, "line1": "1 40362U 14088A   26181.97045116  .00029470  00000+0  56593-3 0  9999", "line2": "2 40362  97.0638 181.8609 0004250  34.5452 325.6075 15.47907703639837", "name": "YAOGAN-26", "type": "sar", "velocity": 0}, {"alt": 0, "country": "KR", "id": "40536", "inclination": 0, "line1": "1 40536U 15014A   26181.95472670  .00034190  00000+0  48029-3 0  9999", "line2": "2 40536  97.6884 174.3299 0057118 125.5372 235.1226 15.54677658623954", "name": "KOMPSAT-3A", "type": "optical", "velocity": 0}, {"alt": 0, "country": "EU", "id": "40697", "inclination": 0, "line1": "1 40697U 15028A   26181.92098976 -.00000192  00000+0 -56743-4 0  9992", "line2": "2 40697  98.5689 256.5775 0001205  95.0517 265.0803 14.30817884575695", "name": "SENTINEL-2A", "type": "military", "velocity": 0}, {"alt": 0, "country": "CN", "id": "40701", "inclination": 0, "line1": "1 40701U 15030A   26181.93728003  .00021485  00000+0  43430-3 0  9997", "line2": "2 40701  97.6893  16.1369 0009630 139.6190 220.5775 15.46450878613577", "name": "GAOFEN-8", "type": "optical", "velocity": 0}, {"alt": 0, "country": "CN", "id": "40878", "inclination": 0, "line1": "1 40878U 15040A   26181.94037017  .00000220  00000+0  68981-3 0  9994", "line2": "2 40878 100.1151 167.7262 0008108 177.4049 182.7108 13.16071194519474", "name": "YAOGAN-27", "type": "sar", "velocity": 0}, {"alt": 0, "country": "CN", "id": "40894", "inclination": 0, "line1": "1 40894U 15047A   26181.96288410  .00001115  00000+0  14283-3 0  9996", "line2": "2 40894  97.6268 217.0314 0028884  94.8017 265.6496 14.82910852582230", "name": "GAOFEN-9 01", "type": "optical", "velocity": 0}, {"alt": 0, "country": "CN", "id": "41026", "inclination": 0, "line1": "1 41026U 15064A   26181.94856030  .00008539  00000+0  31851-3 0  9997", "line2": "2 41026  97.3094 319.9315 0011717 137.3247 222.8905 15.27594867592785", "name": "YAOGAN-28", "type": "sar", "velocity": 0}, {"alt": 0, "country": "CN", "id": "41038", "inclination": 0, "line1": "1 41038U 15069A   26182.00872028 -.00000328  00000+0 -33683-4 0  9994", "line2": "2 41038  98.0021 210.6626 0001836  32.4778 327.6548 14.83094059572675", "name": "YAOGAN-29", "type": "sar", "velocity": 0}, {"alt": 0, "country": "CN", "id": "41194", "inclination": 0, "line1": "1 41194U 15083A   26181.82134447 -.00000324  00000+0  00000+0 0  9995", "line2": "2 41194   0.3919  83.8517 0004226 111.7116 124.6883  1.00269107 38668", "name": "GAOFEN-4", "type": "optical", "velocity": 0}, {"alt": 0, "country": "EU", "id": "41335", "inclination": 0, "line1": "1 41335U 16011A   26181.96202697  .00000125  00000+0  69742-4 0  9993", "line2": "2 41335  98.6245 249.1475 0001430  95.2455 264.8889 14.26736400540021", "name": "SENTINEL-3A", "type": "military", "velocity": 0}, {"alt": 0, "country": "CN", "id": "41556", "inclination": 0, "line1": "1 41556U 16033A   26181.93710913  .00005726  00000+0  25846-3 0  9992", "line2": "2 41556  97.3835 257.4468 0012749 237.3706 122.6300 15.21309240560074", "name": "ZIYUAN 3-02 (ZY 3-02)", "type": "optical", "velocity": 0}, {"alt": 0, "country": "IN", "id": "41599", "inclination": 0, "line1": "1 41599U 16040A   26181.95790749  .00003025  00000+0  14640-3 0  9994", "line2": "2 41599  97.4483 241.7460 0010488  89.8344 270.4092 15.19295387555803", "name": "CARTOSAT-2C", "type": "optical", "velocity": 0}, {"alt": 0, "country": "US", "id": "41601", "inclination": 0, "line1": "1 41601U 16040C   26180.98179305  .00009575  00000+0  27073-3 0  9999", "line2": "2 41601  96.9554 212.0090 0002140  31.0993 329.0379 15.36513930559837", "name": "SKYSAT-C1", "type": "optical", "velocity": 0}, {"alt": 0, "country": "CN", "id": "41727", "inclination": 0, "line1": "1 41727U 16049A   26181.95957454 -.00000150  00000+0 -32431-4 0  9991", "line2": "2 41727  98.4006 189.5371 0001643  95.4995 264.6382 14.42216635520630", "name": "GAOFEN-3", "type": "optical", "velocity": 0}, {"alt": 0, "country": "US", "id": "41771", "inclination": 0, "line1": "1 41771U 16058B   26181.51248890  .00015921  00000+0  29562-3 0  9999", "line2": "2 41771  96.9164 202.7293 0002454 138.5332 221.6106 15.48999706547532", "name": "SKYSAT-C4", "type": "optical", "velocity": 0}, {"alt": 0, "country": "US", "id": "41772", "inclination": 0, "line1": "1 41772U 16058C   26181.08033837  .00008047  00000+0  24184-3 0  9991", "line2": "2 41772  97.0461 221.1459 0001597 201.4188 158.6990 15.34650353545726", "name": "SKYSAT-C5", "type": "optical", "velocity": 0}, {"alt": 0, "country": "US", "id": "41773", "inclination": 0, "line1": "1 41773U 16058D   26181.49582062  .00011718  00000+0  27333-3 0  9994", "line2": "2 41773  97.0157 203.0914 0003374  40.8132 319.3368 15.42367359547102", "name": "SKYSAT-C2", "type": "optical", "velocity": 0}, {"alt": 0, "country": "US", "id": "41774", "inclination": 0, "line1": "1 41774U 16058E   26181.03192938  .00024636  00000+0  39473-3 0  9995", "line2": "2 41774  96.9001 211.3879 0001323 127.9832 232.1542 15.53084147548107", "name": "SKYSAT-C3", "type": "optical", "velocity": 0}, {"alt": 0, "country": "TR", "id": "41875", "inclination": 0, "line1": "1 41875U 16073A   26181.99489900  .00000330  00000+0  73937-4 0  9996", "line2": "2 41875  98.1241  76.4529 0001409  77.3958 282.7402 14.62783812510843", "name": "GOKTURK 1A", "type": "military", "velocity": 0}, {"alt": 0, "country": "IN", "id": "41948", "inclination": 0, "line1": "1 41948U 17008A   26181.92396751  .00002457  00000+0  11961-3 0  9990", "line2": "2 41948  97.4103 240.9732 0005102 179.2789 180.8454 15.19304780519665", "name": "CARTOSAT-2D", "type": "optical", "velocity": 0}, {"alt": 0, "country": "EU", "id": "42063", "inclination": 0, "line1": "1 42063U 17013A   26181.91377442 -.00000189  00000+0 -55366-4 0  9990", "line2": "2 42063  98.5696 256.4943 0001212  90.8331 269.2991 14.30819489486602", "name": "SENTINEL-2B", "type": "military", "velocity": 0}, {"alt": 0, "country": "IN", "id": "42767", "inclination": 0, "line1": "1 42767U 17036C   26181.94175188  .00003100  00000+0  15024-3 0  9992", "line2": "2 42767  97.4273 241.5170 0002258 246.9129 113.1868 15.19268158500234", "name": "CARTOSAT-2E", "type": "optical", "velocity": 0}, {"alt": 0, "country": "EU", "id": "42969", "inclination": 0, "line1": "1 42969U 17064A   26181.45323956  .00000049  00000+0  44252-4 0  9996", "line2": "2 42969  98.7927 123.4903 0001029  90.4349 269.6945 14.19521106451446", "name": "SENTINEL-5P", "type": "military", "velocity": 0}, {"alt": 0, "country": "US", "id": "42987", "inclination": 0, "line1": "1 42987U 17068A   26181.86414283  .00031749  00000+0  41486-3 0  9995", "line2": "2 42987  97.4363 331.2973 0000517 147.4382 212.6906 15.58601191485374", "name": "SKYSAT-C11", "type": "optical", "velocity": 0}, {"alt": 0, "country": "US", "id": "42988", "inclination": 0, "line1": "1 42988U 17068B   26181.85386197  .00010153  00000+0  30264-3 0  9995", "line2": "2 42988  97.4524 318.8366 0001241 107.8235 252.3144 15.34864364484453", "name": "SKYSAT-C10", "type": "optical", "velocity": 0}, {"alt": 0, "country": "US", "id": "42989", "inclination": 0, "line1": "1 42989U 17068C   26181.34979891  .00011811  00000+0  27976-3 0  9997", "line2": "2 42989  97.4443 319.3885 0009459  91.7825 268.4506 15.41880018484789", "name": "SKYSAT-C9", "type": "optical", "velocity": 0}, {"alt": 0, "country": "US", "id": "42990", "inclination": 0, "line1": "1 42990U 17068D   26181.34863982  .00009597  00000+0  26548-3 0  9994", "line2": "2 42990  97.4538 318.1764 0001322  94.7632 265.3763 15.37226278484338", "name": "SKYSAT-C8", "type": "optical", "velocity": 0}, {"alt": 0, "country": "US", "id": "42991", "inclination": 0, "line1": "1 42991U 17068E   26181.79834135  .00010284  00000+0  28444-3 0  9994", "line2": "2 42991  97.4553 319.6226 0006794  67.1516 293.0445 15.37188524484468", "name": "SKYSAT-C7", "type": "optical", "velocity": 0}, {"alt": 0, "country": "US", "id": "42992", "inclination": 0, "line1": "1 42992U 17068F   26181.84379678  .00010301  00000+0  31346-3 0  9992", "line2": "2 42992  97.4588 319.5850 0005215 114.0395 246.1394 15.34195686484414", "name": "SKYSAT-C6", "type": "optical", "velocity": 0}, {"alt": 0, "country": "IN", "id": "43111", "inclination": 0, "line1": "1 43111U 18004A   26181.90818272  .00003656  00000+0  17712-3 0  9998", "line2": "2 43111  97.4783 241.4091 0001429 166.2175 193.9098 15.19168257469413", "name": "CARTOSAT-2F", "type": "optical", "velocity": 0}, {"alt": 0, "country": "CN", "id": "43259", "inclination": 0, "line1": "1 43259U 18031A   26181.92058328  .00000212  00000+0  37951-4 0  9994", "line2": "2 43259  98.0526 244.4084 0002425 353.4547   6.6631 14.76452067444720", "name": "GAOFEN-1 02", "type": "optical", "velocity": 0}, {"alt": 0, "country": "CN", "id": "43260", "inclination": 0, "line1": "1 43260U 18031B   26181.96635995  .00000786  00000+0  12047-3 0  9995", "line2": "2 43260  98.0512 244.3116 0003414  50.6202 309.5309 14.76445119444722", "name": "GAOFEN-1 03", "type": "optical", "velocity": 0}, {"alt": 0, "country": "CN", "id": "43262", "inclination": 0, "line1": "1 43262U 18031D   26181.94214453  .00000741  00000+0  11394-3 0  9992", "line2": "2 43262  98.0527 244.4795 0001861  63.6314 296.5087 14.76453040444715", "name": "GAOFEN-1 04", "type": "optical", "velocity": 0}, {"alt": 0, "country": "EU", "id": "43437", "inclination": 0, "line1": "1 43437U 18039A   26181.93516633  .00000118  00000+0  66871-4 0  9997", "line2": "2 43437  98.6244 249.2699 0000820 114.5721 245.5545 14.26738573426084", "name": "SENTINEL-3B", "type": "military", "velocity": 0}, {"alt": 0, "country": "CN", "id": "43461", "inclination": 0, "line1": "1 43461U 18043A   26181.89972252  .00000341  00000+0  80132-4 0  9991", "line2": "2 43461  98.4578 153.7744 0002771  58.8564 301.2907 14.60614908433691", "name": "GAOFEN-5 01", "type": "optical", "velocity": 0}, {"alt": 0, "country": "CN", "id": "43484", "inclination": 0, "line1": "1 43484U 18048A   26181.96386476 -.00000242  00000+0 -27239-4 0  9997", "line2": "2 43484  98.0970 244.6311 0011833 121.4588 238.7779 14.76365782435424", "name": "GAOFEN-6", "type": "optical", "velocity": 0}, {"alt": 0, "country": "CN", "id": "43585", "inclination": 0, "line1": "1 43585U 18063A   26181.94033843  .00011442  00000+0  16792-3 0  9994", "line2": "2 43585  97.1291 248.7827 0002073 279.1847  80.9173 15.55673936442484", "name": "GAOFEN-11 01", "type": "optical", "velocity": 0}, {"alt": 0, "country": "CN", "id": "44622", "inclination": 0, "line1": "1 44622U 19066A   26181.98519157  .00001240  00000+0  15917-3 0  9995", "line2": "2 44622  98.0503 135.6650 0007174  89.4578 270.7458 14.83030096364427", "name": "GAOFEN-10R", "type": "optical", "velocity": 0}, {"alt": 0, "country": "IN", "id": "44804", "inclination": 0, "line1": "1 44804U 19081A   26181.92281819  .00002351  00000+0  11461-3 0  9993", "line2": "2 44804  97.4300 243.5686 0013332 104.8049 255.4664 15.19228989365557", "name": "CARTOSAT-3", "type": "optical", "velocity": 0}, {"alt": 0, "country": "CN", "id": "44819", "inclination": 0, "line1": "1 44819U 19082A   26182.00277758  .00000423  00000+0  61873-4 0  9998", "line2": "2 44819  97.8102 188.0176 0001712  56.1364 304.0012 14.80469752356136", "name": "GAOFEN-12 01", "type": "optical", "velocity": 0}, {"alt": 0, "country": "EU", "id": "46984", "inclination": 0, "line1": "1 46984U 20086A   26181.74877246 -.00000059  00000+0  68023-5 0  9998", "line2": "2 46984  66.0412 106.8857 0007835 269.9702  90.0415 12.80929946262060", "name": "SENTINEL-6A", "type": "military", "velocity": 0}, {"alt": 0, "country": "CN", "id": "48079", "inclination": 0, "line1": "1 48079U 21026A   26181.94772637  .00000376  00000+0  56234-4 0  9991", "line2": "2 48079  97.9925 180.0722 0004767 172.4407 187.6878 14.80306611283794", "name": "GAOFEN-12 02", "type": "optical", "velocity": 0}, {"alt": 0, "country": "EU", "id": "48268", "inclination": 0, "line1": "1 48268U 21034A   26181.96224176  .00000171  00000+0  28370-4 0  9995", "line2": "2 48268  97.8941 256.5300 0001349  93.8558 266.2809 14.81672430279696", "name": "PLEIADES NEO 3", "type": "optical", "velocity": 0}, {"alt": 0, "country": "EU", "id": "49070", "inclination": 0, "line1": "1 49070U 21073E   26181.92845747  .00000602  00000+0  83053-4 0  9997", "line2": "2 49070  97.8939 256.4934 0001366  88.9399 271.1970 14.81676539263404", "name": "PLEIADES NEO 4", "type": "optical", "velocity": 0}, {"alt": 0, "country": "CN", "id": "52912", "inclination": 0, "line1": "1 52912U 22069A   26181.91244882  .00000997  00000+0  13837-3 0  9993", "line2": "2 52912  97.8269  69.4365 0002402  88.2504 271.8983 14.80055364216643", "name": "GAOFEN-12 03", "type": "optical", "velocity": 0}, {"alt": 0, "country": "CN", "id": "57654", "inclination": 0, "line1": "1 57654U 23123A   26181.92925947  .00000971  00000+0  13597-3 0  9997", "line2": "2 57654  97.9114  99.7455 0003958  78.9236 281.2421 14.79751840154667", "name": "GAOFEN-12 04", "type": "optical", "velocity": 0}, {"alt": 0, "country": "EU", "id": "60989", "inclination": 0, "line1": "1 60989U 24157A   26181.94875180  .00000119  00000+0  61861-4 0  9997", "line2": "2 60989  98.5691 256.5361 0000900  93.3020 266.8266 14.30821508 94951", "name": "SENTINEL-2C", "type": "military", "velocity": 0}, {"alt": 0, "country": "EU", "id": "66514", "inclination": 0, "line1": "1 66514U 25264A   26181.74912041 -.00000061  00000+0 -51680-6 0  9991", "line2": "2 66514  66.0411 107.0111 0007918 268.8985  91.1124 12.80929939 28903", "name": "SENTINEL-6B", "type": "military", "velocity": 0}] |
